{
    "links": {
        "self": "http://www.neowsapp.com/rest/v1/neo/3716473?api_key=iIulBulltgU6a56xZRHN4H3l9WmuAYTsLGpBGhQ2"
    },
    "id": "3716473",
    "neo_reference_id": "3716473",
    "name": "(2015 GJ46)",
    "designation": "2015 GJ46",
    "nasa_jpl_url": "http://ssd.jpl.nasa.gov/sbdb.cgi?sstr=3716473",
    "absolute_magnitude_h": 19.2,
    "estimated_diameter": {
        "kilometers": {
            "estimated_diameter_min": 0.3841978911,
            "estimated_diameter_max": 0.8590926012
        },
        "meters": {
            "estimated_diameter_min": 384.1978910643,
            "estimated_diameter_max": 859.0926012318
        },
        "miles": {
            "estimated_diameter_min": 0.2387294278,
            "estimated_diameter_max": 0.5338152287
        },
        "feet": {
            "estimated_diameter_min": 1260.4918089193,
            "estimated_diameter_max": 2818.5453698252
        }
    },
    "is_potentially_hazardous_asteroid": false,
    "close_approach_data": [
        {
            "close_approach_date": "2008-08-09",
            "close_approach_date_full": "2008-Aug-09 07:16",
            "epoch_date_close_approach": 1218266160000,
            "relative_velocity": {
                "kilometers_per_second": "9.1960610433",
                "kilometers_per_hour": "33105.8197558479",
                "miles_per_hour": "20570.6689477378"
            },
            "miss_distance": {
                "astronomical": "1.1652674348",
                "lunar": "453.2890321372",
                "kilometers": "174321526.226443876",
                "miles": "108318373.6073864488"
            },
            "orbiting_body": "Juptr"
        },
        {
            "close_approach_date": "2015-04-01",
            "close_approach_date_full": "2015-Apr-01 16:14",
            "epoch_date_close_approach": 1427904840000,
            "relative_velocity": {
                "kilometers_per_second": "25.7710292245",
                "kilometers_per_hour": "92775.7052080448",
                "miles_per_hour": "57647.2152721876"
            },
            "miss_distance": {
                "astronomical": "0.3667596481",
                "lunar": "142.6695031109",
                "kilometers": "54866462.157709547",
                "miles": "34092438.6974118686"
            },
            "orbiting_body": "Earth"
        },
        {
            "close_approach_date": "2031-11-22",
            "close_approach_date_full": "2031-Nov-22 07:30",
            "epoch_date_close_approach": 1953099000000,
            "relative_velocity": {
                "kilometers_per_second": "8.235438755",
                "kilometers_per_hour": "29647.5795179133",
                "miles_per_hour": "18421.8529510057"
            },
            "miss_distance": {
                "astronomical": "0.3688574768",
                "lunar": "143.4855584752",
                "kilometers": "55180292.862854416",
                "miles": "34287444.0550703008"
            },
            "orbiting_body": "Juptr"
        }
    ],
    "orbital_data": {
        "orbit_id": "13",
        "orbit_determination_date": "2017-04-06 08:34:25",
        "first_observation_date": "2015-04-11",
        "last_observation_date": "2015-05-17",
        "data_arc_in_days": 36,
        "observations_used": 43,
        "orbit_uncertainty": "7",
        "minimum_orbit_intersection": ".235517",
        "jupiter_tisserand_invariant": "2.700",
        "epoch_osculation": "2459000.5",
        "eccentricity": ".7697438629767029",
        "semi_major_axis": "2.898925207236407",
        "inclination": "18.25841969150624",
        "ascending_node_longitude": "266.3231367283197",
        "orbital_period": "1802.82653989456",
        "perihelion_distance": ".667495319737716",
        "perihelion_argument": "198.534233120243",
        "aphelion_distance": "5.130355094735099",
        "perihelion_time": "2458874.141664175263",
        "mean_anomaly": "25.23204528571325",
        "mean_motion": ".1996864324068887",
        "equinox": "J2000",
        "orbit_class": {
            "orbit_class_type": "APO",
            "orbit_class_description": "Near-Earth asteroid orbits which cross the Earth’s orbit similar to that of 1862 Apollo",
            "orbit_class_range": "a (semi-major axis) > 1.0 AU; q (perihelion) < 1.017 AU"
        }
    },
    "is_sentry_object": false
}